{"type": "FeatureCollection", "features": [{"type": "Feature", "properties": {"norad_id": 66549, "name": "SHIJIAN-28 (SJ-28)", "group": "last-30-days", "lat": 2.130639070573093, "lon": 69.69197830480178, "alt_km": 35784.34060732277, "timestamp": "2025-12-27T14:26:29.240413+00:00", "meta": {"OBJECT_NAME": "SHIJIAN-28 (SJ-28)", "OBJECT_ID": "2025-277A", "EPOCH": "2025-12-25T13:29:07.948320", "MEAN_MOTION": 1.0026485, "ECCENTRICITY": 9.97e-05, "INCLINATION": 4.9871, "RA_OF_ASC_NODE": 274.7549, "ARG_OF_PERICENTER": 127.1328, "MEAN_ANOMALY": 11.4336, "EPHEMERIS_TYPE": 0, "CLASSIFICATION_TYPE": "U", "NORAD_CAT_ID": 66549, "ELEMENT_SET_NO": 999, "REV_AT_EPOCH": 41, "BSTAR": 0, "MEAN_MOTION_DOT": -3.37e-06, "MEAN_MOTION_DDOT": 0}, "tle": {"line1": "1 66549U 25277A   25359.56189755 -.00000337  00000+0  00000+0 0  9995", "line2": "2 66549   4.9871 274.7549 0000997 127.1328  11.4336  1.00264850   417"}}, "geometry": {"type": "Point", "coordinates": [69.69197830480178, 2.130639070573093]}}, {"type": "Feature", "properties": {"norad_id": 66550, "name": "CZ-7A R/B", "group": "last-30-days", "lat": 4.916433736545028, "lon": -79.48152800795904, "alt_km": 22259.01625074956, "timestamp": "2025-12-27T14:26:29.240468+00:00", "meta": {"OBJECT_NAME": "CZ-7A R/B", "OBJECT_ID": "2025-277B", "EPOCH": "2025-12-26T04:09:27.198144", "MEAN_MOTION": 3.54037207, "ECCENTRICITY": 0.6428177, "INCLINATION": 14.3386, "RA_OF_ASC_NODE": 261.883, "ARG_OF_PERICENTER": 204.1589, "MEAN_ANOMALY": 102.8537, "EPHEMERIS_TYPE": 0, "CLASSIFICATION_TYPE": "U", "NORAD_CAT_ID": 66550, "ELEMENT_SET_NO": 999, "REV_AT_EPOCH": 76, "BSTAR": 0.003172, "MEAN_MOTION_DOT": 0.04976202, "MEAN_MOTION_DDOT": -2.1169e-07}, "tle": {"line1": "1 66550U 25277B   25360.17323146  .04976202 -21169-6  31720-2 0  9999", "line2": "2 66550  14.3386 261.8830 6428177 204.1589 102.8537  3.54037207   761"}}, "geometry": {"type": "Point", "coordinates": [-79.48152800795904, 4.916433736545028]}}, {"type": "Feature", "properties": {"norad_id": 66554, "name": "GLOBAL-33", "group": "last-30-days", "lat": 20.128492871411932, "lon": -4.794477685511542, "alt_km": 470.4330028634595, "timestamp": "2025-12-27T14:26:29.240510+00:00", "meta": {"OBJECT_NAME": "GLOBAL-33", "OBJECT_ID": "2025-267A", "EPOCH": "2025-12-27T04:55:04.681920", "MEAN_MOTION": 15.31821083, "ECCENTRICITY": 0.00051492, "INCLINATION": 42.0213, "RA_OF_ASC_NODE": 333.4792, "ARG_OF_PERICENTER": 191.8206, "MEAN_ANOMALY": 168.2511, "EPHEMERIS_TYPE": 0, "CLASSIFICATION_TYPE": "U", "NORAD_CAT_ID": 66554, "ELEMENT_SET_NO": 999, "REV_AT_EPOCH": 562, "BSTAR": 0.0005153059, "MEAN_MOTION_DOT": 0.00015963, "MEAN_MOTION_DDOT": 0}, "tle": {"line1": "1 66554U 25267A   25361.20491530  .00015963  00000+0  51531-3 0  9990", "line2": "2 66554  42.0213 333.4792 0005149 191.8206 168.2511 15.31821083  5626"}}, "geometry": {"type": "Point", "coordinates": [-4.794477685511542, 20.128492871411932]}}, {"type": "Feature", "properties": {"norad_id": 66557, "name": "STARLINK-35699", "group": "last-30-days", "lat": -29.194278628302413, "lon": -108.54700582878934, "alt_km": 479.3788406669728, "timestamp": "2025-12-27T14:26:29.240524+00:00", "meta": {"OBJECT_NAME": "STARLINK-35699", "OBJECT_ID": "2025-268A", "EPOCH": "2025-12-27T08:00:01.999872", "MEAN_MOTION": 15.30892706, "ECCENTRICITY": 6.857e-05, "INCLINATION": 43.0008, "RA_OF_ASC_NODE": 36.1347, "ARG_OF_PERICENTER": 219.0677, "MEAN_ANOMALY": 326.4553, "EPHEMERIS_TYPE": 0, "CLASSIFICATION_TYPE": "U", "NORAD_CAT_ID": 66557, "ELEMENT_SET_NO": 999, "REV_AT_EPOCH": 607, "BSTAR": -0.089288276, "MEAN_MOTION_DOT": -0.02408486, "MEAN_MOTION_DDOT": 0}, "tle": {"line1": "1 66557U 25268A   25361.33335648 -.02408486  00000+0 -89288-1 0  9993", "line2": "2 66557  43.0008  36.1347 0000685 219.0677 326.4553 15.30892706  6073"}}, "geometry": {"type": "Point", "coordinates": [-108.54700582878934, -29.194278628302413]}}, {"type": "Feature", "properties": {"norad_id": 66558, "name": "STARLINK-35695", "group": "last-30-days", "lat": -38.265504184683735, "lon": -87.61004658740504, "alt_km": 477.7116958783581, "timestamp": "2025-12-27T14:26:29.240537+00:00", "meta": {"OBJECT_NAME": "STARLINK-35695", "OBJECT_ID": "2025-268B", "EPOCH": "2025-12-27T08:00:01.999872", "MEAN_MOTION": 15.3142217, "ECCENTRICITY": 0.0001027, "INCLINATION": 43.0009, "RA_OF_ASC_NODE": 36.0887, "ARG_OF_PERICENTER": 294.7425, "MEAN_ANOMALY": 269.7877, "EPHEMERIS_TYPE": 0, "CLASSIFICATION_TYPE": "U", "NORAD_CAT_ID": 66558, "ELEMENT_SET_NO": 999, "REV_AT_EPOCH": 607, "BSTAR": -0.072524495, "MEAN_MOTION_DOT": -0.02029617, "MEAN_MOTION_DDOT": 0}, "tle": {"line1": "1 66558U 25268B   25361.33335648 -.02029617  00000+0 -72524-1 0  9994", "line2": "2 66558  43.0009  36.0887 0001027 294.7425 269.7877 15.31422170  6078"}}, "geometry": {"type": "Point", "coordinates": [-87.61004658740504, -38.265504184683735]}}, {"type": "Feature", "properties": {"norad_id": 66559, "name": "STARLINK-35419", "group": "last-30-days", "lat": -10.77765070725073, "lon": 22.538440428246872, "alt_km": 460.51576104287597, "timestamp": "2025-12-27T14:26:29.240549+00:00", "meta": {"OBJECT_NAME": "STARLINK-35419", "OBJECT_ID": "2025-268C", "EPOCH": "2025-12-27T08:00:01.999872", "MEAN_MOTION": 15.36557746, "ECCENTRICITY": 0.0001014, "INCLINATION": 43.0001, "RA_OF_ASC_NODE": 35.8613, "ARG_OF_PERICENTER": 270.5686, "MEAN_ANOMALY": 27.8774, "EPHEMERIS_TYPE": 0, "CLASSIFICATION_TYPE": "U", "NORAD_CAT_ID": 66559, "ELEMENT_SET_NO": 999, "REV_AT_EPOCH": 607, "BSTAR": -0.061492684, "MEAN_MOTION_DOT": -0.01995228, "MEAN_MOTION_DDOT": 0}, "tle": {"line1": "1 66559U 25268C   25361.33335648 -.01995228  00000+0 -61493-1 0  9997", "line2": "2 66559  43.0001  35.8613 0001014 270.5686  27.8774 15.36557746  6074"}}, "geometry": {"type": "Point", "coordinates": [22.538440428246872, -10.77765070725073]}}, {"type": "Feature", "properties": {"norad_id": 66560, "name": "STARLINK-35411", "group": "last-30-days", "lat": -3.531156003868875, "lon": 30.502175306319316, "alt_km": 458.3982821740583, "timestamp": "2025-12-27T14:26:29.240563+00:00", "meta": {"OBJECT_NAME": "STARLINK-35411", "OBJECT_ID": "2025-268D", "EPOCH": "2025-12-27T08:00:01.999872", "MEAN_MOTION": 15.37106639, "ECCENTRICITY": 9.633e-05, "INCLINATION": 43.0004, "RA_OF_ASC_NODE": 35.8361, "ARG_OF_PERICENTER": 270.1938, "MEAN_ANOMALY": 38.4737, "EPHEMERIS_TYPE": 0, "CLASSIFICATION_TYPE": "U", "NORAD_CAT_ID": 66560, "ELEMENT_SET_NO": 999, "REV_AT_EPOCH": 607, "BSTAR": -0.062038826, "MEAN_MOTION_DOT": -0.02078182, "MEAN_MOTION_DDOT": 0}, "tle": {"line1": "1 66560U 25268D   25361.33335648 -.02078182  00000+0 -62039-1 0  9998", "line2": "2 66560  43.0004  35.8361 0000963 270.1938  38.4737 15.37106639  6076"}}, "geometry": {"type": "Point", "coordinates": [30.502175306319316, -3.531156003868875]}}, {"type": "Feature", "properties": {"norad_id": 66561, "name": "STARLINK-35305", "group": "last-30-days", "lat": 16.76489864876729, "lon": 53.08550329818709, "alt_km": 451.0669062431971, "timestamp": "2025-12-27T14:26:29.240575+00:00", "meta": {"OBJECT_NAME": "STARLINK-35305", "OBJECT_ID": "2025-268E", "EPOCH": "2025-12-27T08:00:01.999872", "MEAN_MOTION": 15.38789907, "ECCENTRICITY": 0.0001272, "INCLINATION": 42.9997, "RA_OF_ASC_NODE": 35.7649, "ARG_OF_PERICENTER": 263.853, "MEAN_ANOMALY": 73.3916, "EPHEMERIS_TYPE": 0, "CLASSIFICATION_TYPE": "U", "NORAD_CAT_ID": 66561, "ELEMENT_SET_NO": 999, "REV_AT_EPOCH": 601, "BSTAR": -0.059330432, "MEAN_MOTION_DOT": -0.02062963, "MEAN_MOTION_DDOT": 0}, "tle": {"line1": "1 66561U 25268E   25361.33335648 -.02062963  00000+0 -59330-1 0  9999", "line2": "2 66561  42.9997  35.7649 0001272 263.8530  73.3916 15.38789907  6012"}}, "geometry": {"type": "Point", "coordinates": [53.08550329818709, 16.76489864876729]}}, {"type": "Feature", "properties": {"norad_id": 66562, "name": "STARLINK-35579", "group": "last-30-days", "lat": 6.93496766481561, "lon": 41.76206013988654, "alt_km": 454.8033744164777, "timestamp": "2025-12-27T14:26:29.240591+00:00", "meta": {"OBJECT_NAME": "STARLINK-35579", "OBJECT_ID": "2025-268F", "EPOCH": "2025-12-27T08:00:01.999872", "MEAN_MOTION": 15.37936931, "ECCENTRICITY": 0.00011753, "INCLINATION": 42.9997, "RA_OF_ASC_NODE": 35.8009, "ARG_OF_PERICENTER": 261.3303, "MEAN_ANOMALY": 61.9105, "EPHEMERIS_TYPE": 0, "CLASSIFICATION_TYPE": "U", "NORAD_CAT_ID": 66562, "ELEMENT_SET_NO": 999, "REV_AT_EPOCH": 607, "BSTAR": -0.060099774, "MEAN_MOTION_DOT": -0.0203517, "MEAN_MOTION_DDOT": 0}, "tle": {"line1": "1 66562U 25268F   25361.33335648 -.02035170  00000+0 -60100-1 0  9997", "line2": "2 66562  42.9997  35.8009 0001175 261.3303  61.9105 15.37936931  6076"}}, "geometry": {"type": "Point", "coordinates": [41.76206013988654, 6.93496766481561]}}, {"type": "Feature", "properties": {"norad_id": 66563, "name": "STARLINK-35437", "group": "last-30-days", "lat": 25.582842161097695, "lon": 65.10408911766827, "alt_km": 447.43845304325987, "timestamp": "2025-12-27T14:26:29.240603+00:00", "meta": {"OBJECT_NAME": "STARLINK-35437", "OBJECT_ID": "2025-268G", "EPOCH": "2025-12-27T08:00:01.999872", "MEAN_MOTION": 15.39627236, "ECCENTRICITY": 0.00014114, "INCLINATION": 43.0002, "RA_OF_ASC_NODE": 35.7325, "ARG_OF_PERICENTER": 264.6838, "MEAN_ANOMALY": 86.0093, "EPHEMERIS_TYPE": 0, "CLASSIFICATION_TYPE": "U", "NORAD_CAT_ID": 66563, "ELEMENT_SET_NO": 999, "REV_AT_EPOCH": 601, "BSTAR": -0.057707208, "MEAN_MOTION_DOT": -0.02063129, "MEAN_MOTION_DDOT": 0}, "tle": {"line1": "1 66563U 25268G   25361.33335648 -.02063129  00000+0 -57707-1 0  9992", "line2": "2 66563  43.0002  35.7325 0001411 264.6838  86.0093 15.39627236  6013"}}, "geometry": {"type": "Point", "coordinates": [65.10408911766827, 25.582842161097695]}}]}